ALOS (DAICHI)           
1 28931U 06002A   24274.11644502  .00005384  00000+0  97552-3 0  9993
2 28931  98.0470 225.0435 0002200 108.3455 251.7989 14.66695371996726
